[{"OBJECT_NAME":"PROBA-1","OBJECT_ID":"2001-049B","EPOCH":"2026-03-07T05:37:18.927840","MEAN_MOTION":15.07003752,"ECCENTRICITY":0.0056842,"INCLINATION":97.9623,"RA_OF_ASC_NODE":71.2264,"ARG_OF_PERICENTER":107.1511,"MEAN_ANOMALY":253.595,"EPHEMERIS_TYPE":0,"CLASSIFICATION_TYPE":"U","NORAD_CAT_ID":26958,"ELEMENT_SET_NO":999,"REV_AT_EPOCH":32826,"BSTAR":0.00014845,"MEAN_MOTION_DOT":2.234e-5,"MEAN_MOTION_DDOT":0},{"OBJECT_NAME":"CUTE-1 (CO-55)","OBJECT_ID":"2003-031E","EPOCH":"2026-03-06T23:08:53.575872","MEAN_MOTION":14.24263294,"ECCENTRICITY":0.0010585,"INCLINATION":98.678,"RA_OF_ASC_NODE":75.7971,"ARG_OF_PERICENTER":119.5034,"MEAN_ANOMALY":240.7202,"EPHEMERIS_TYPE":0,"CLASSIFICATION_TYPE":"U","NORAD_CAT_ID":27844,"ELEMENT_SET_NO":999,"REV_AT_EPOCH":17712,"BSTAR":0.00020017,"MEAN_MOTION_DOT":4.18e-6,"MEAN_MOTION_DDOT":0},{"OBJECT_NAME":"CUBESAT XI-IV (CO-57)","OBJECT_ID":"2003-031J","EPOCH":"2026-03-06T23:20:06.708768","MEAN_MOTION":14.23558791,"ECCENTRICITY":0.001027,"INCLINATION":98.6809,"RA_OF_ASC_NODE":75.5995,"ARG_OF_PERICENTER":135.9414,"MEAN_ANOMALY":224.2584,"EPHEMERIS_TYPE":0,"CLASSIFICATION_TYPE":"U","NORAD_CAT_ID":27848,"ELEMENT_SET_NO":999,"REV_AT_EPOCH":17683,"BSTAR":0.00016835,"MEAN_MOTION_DOT":3.4e-6,"MEAN_MOTION_DDOT":0},{"OBJECT_NAME":"APRIZESAT 4","OBJECT_ID":"2009-041D","EPOCH":"2026-03-07T03:49:47.537472","MEAN_MOTION":14.83702098,"ECCENTRICITY":0.0042193,"INCLINATION":98.149,"RA_OF_ASC_NODE":139.43,"ARG_OF_PERICENTER":293.1269,"MEAN_ANOMALY":66.55,"EPHEMERIS_TYPE":0,"CLASSIFICATION_TYPE":"U","NORAD_CAT_ID":35684,"ELEMENT_SET_NO":999,"REV_AT_EPOCH":89623,"BSTAR":0.0001272,"MEAN_MOTION_DOT":1.008e-5,"MEAN_MOTION_DDOT":0},{"OBJECT_NAME":"APRIZESAT 3","OBJECT_ID":"2009-041F","EPOCH":"2026-03-06T23:14:57.959232","MEAN_MOTION":14.95889217,"ECCENTRICITY":0.0063133,"INCLINATION":98.1899,"RA_OF_ASC_NODE":214.4076,"ARG_OF_PERICENTER":45.6164,"MEAN_ANOMALY":315.0201,"EPHEMERIS_TYPE":0,"CLASSIFICATION_TYPE":"U","NORAD_CAT_ID":35686,"ELEMENT_SET_NO":999,"REV_AT_EPOCH":90109,"BSTAR":0.00020823,"MEAN_MOTION_DOT":2.356e-5,"MEAN_MOTION_DDOT":0},{"OBJECT_NAME":"PROBA-2","OBJECT_ID":"2009-059B","EPOCH":"2026-03-07T00:54:23.010048","MEAN_MOTION":14.54788914,"ECCENTRICITY":0.0012227,"INCLINATION":98.2428,"RA_OF_ASC_NODE":250.8079,"ARG_OF_PERICENTER":233.035,"MEAN_ANOMALY":126.9728,"EPHEMERIS_TYPE":0,"CLASSIFICATION_TYPE":"U","NORAD_CAT_ID":36037,"ELEMENT_SET_NO":999,"REV_AT_EPOCH":86667,"BSTAR":9.6935e-5,"MEAN_MOTION_DOT":3.7e-6,"MEAN_MOTION_DDOT":0},{"OBJECT_NAME":"APRIZESAT 5","OBJECT_ID":"2011-044E","EPOCH":"2026-03-06T13:55:02.193600","MEAN_MOTION":14.8084614,"ECCENTRICITY":0.00519264,"INCLINATION":98.2402,"RA_OF_ASC_NODE":355.7657,"ARG_OF_PERICENTER":334.6195,"MEAN_ANOMALY":25.2467,"EPHEMERIS_TYPE":0,"CLASSIFICATION_TYPE":"U","NORAD_CAT_ID":37792,"ELEMENT_SET_NO":999,"REV_AT_EPOCH":78360,"BSTAR":0.0002740608,"MEAN_MOTION_DOT":2.105e-5,"MEAN_MOTION_DDOT":0},{"OBJECT_NAME":"APRIZESAT 6","OBJECT_ID":"2011-044F","EPOCH":"2026-03-06T12:32:45.365856","MEAN_MOTION":14.76744408,"ECCENTRICITY":0.00444006,"INCLINATION":98.242,"RA_OF_ASC_NODE":333.91,"ARG_OF_PERICENTER":55.3828,"MEAN_ANOMALY":120.7989,"EPHEMERIS_TYPE":0,"CLASSIFICATION_TYPE":"U","NORAD_CAT_ID":37793,"ELEMENT_SET_NO":999,"REV_AT_EPOCH":78199,"BSTAR":0.00020123572,"MEAN_MOTION_DOT":1.376e-5,"MEAN_MOTION_DDOT":0},{"OBJECT_NAME":"PROBA-V","OBJECT_ID":"2013-021A","EPOCH":"2026-03-06T22:11:01.362048","MEAN_MOTION":14.23572723,"ECCENTRICITY":0.0005343,"INCLINATION":98.3503,"RA_OF_ASC_NODE":49.6266,"ARG_OF_PERICENTER":76.1895,"MEAN_ANOMALY":283.9879,"EPHEMERIS_TYPE":0,"CLASSIFICATION_TYPE":"U","NORAD_CAT_ID":39159,"ELEMENT_SET_NO":999,"REV_AT_EPOCH":66656,"BSTAR":6.0105e-5,"MEAN_MOTION_DOT":9.6e-7,"MEAN_MOTION_DDOT":0},{"OBJECT_NAME":"APRIZESAT 7","OBJECT_ID":"2013-066A","EPOCH":"2026-03-07T02:36:06.769152","MEAN_MOTION":14.9127165,"ECCENTRICITY":0.0035649,"INCLINATION":97.7595,"RA_OF_ASC_NODE":20.886,"ARG_OF_PERICENTER":187.345,"MEAN_ANOMALY":172.7251,"EPHEMERIS_TYPE":0,"CLASSIFICATION_TYPE":"U","NORAD_CAT_ID":39416,"ELEMENT_SET_NO":999,"REV_AT_EPOCH":66601,"BSTAR":0.00018649,"MEAN_MOTION_DOT":1.821e-5,"MEAN_MOTION_DDOT":0},{"OBJECT_NAME":"APRIZESAT 8","OBJECT_ID":"2013-066K","EPOCH":"2026-03-07T02:21:28.873440","MEAN_MOTION":14.87414176,"ECCENTRICITY":0.0044587,"INCLINATION":97.8116,"RA_OF_ASC_NODE":15.0742,"ARG_OF_PERICENTER":261.7518,"MEAN_ANOMALY":97.8641,"EPHEMERIS_TYPE":0,"CLASSIFICATION_TYPE":"U","NORAD_CAT_ID":39425,"ELEMENT_SET_NO":999,"REV_AT_EPOCH":66449,"BSTAR":0.00018931,"MEAN_MOTION_DOT":1.686e-5,"MEAN_MOTION_DDOT":0},{"OBJECT_NAME":"BUGSAT-1 (TITA)","OBJECT_ID":"2014-033E","EPOCH":"2026-03-07T04:39:00.926208","MEAN_MOTION":15.14455261,"ECCENTRICITY":0.0029152,"INCLINATION":98.0431,"RA_OF_ASC_NODE":152.8757,"ARG_OF_PERICENTER":166.9444,"MEAN_ANOMALY":193.2547,"EPHEMERIS_TYPE":0,"CLASSIFICATION_TYPE":"U","NORAD_CAT_ID":40014,"ELEMENT_SET_NO":999,"REV_AT_EPOCH":64039,"BSTAR":0.00039549,"MEAN_MOTION_DOT":7.275e-5,"MEAN_MOTION_DDOT":0},{"OBJECT_NAME":"SAUDISAT 4","OBJECT_ID":"2014-033G","EPOCH":"2026-03-06T23:49:25.419648","MEAN_MOTION":14.79383413,"ECCENTRICITY":0.004589,"INCLINATION":97.7406,"RA_OF_ASC_NODE":215.7607,"ARG_OF_PERICENTER":47.3099,"MEAN_ANOMALY":313.1964,"EPHEMERIS_TYPE":0,"CLASSIFICATION_TYPE":"U","NORAD_CAT_ID":40016,"ELEMENT_SET_NO":999,"REV_AT_EPOCH":63096,"BSTAR":0.00014292,"MEAN_MOTION_DOT":1.032e-5,"MEAN_MOTION_DDOT":0},{"OBJECT_NAME":"APRIZESAT 9","OBJECT_ID":"2014-033J","EPOCH":"2026-03-06T22:00:59.858208","MEAN_MOTION":14.74065586,"ECCENTRICITY":0.0066652,"INCLINATION":97.8876,"RA_OF_ASC_NODE":201.7229,"ARG_OF_PERICENTER":168.047,"MEAN_ANOMALY":192.234,"EPHEMERIS_TYPE":0,"CLASSIFICATION_TYPE":"U","NORAD_CAT_ID":40018,"ELEMENT_SET_NO":999,"REV_AT_EPOCH":62849,"BSTAR":0.0002014,"MEAN_MOTION_DOT":1.321e-5,"MEAN_MOTION_DDOT":0},{"OBJECT_NAME":"APRIZESAT 10","OBJECT_ID":"2014-033K","EPOCH":"2026-03-07T01:57:41.561856","MEAN_MOTION":14.70745748,"ECCENTRICITY":0.0077871,"INCLINATION":97.9474,"RA_OF_ASC_NODE":195.4243,"ARG_OF_PERICENTER":239.3464,"MEAN_ANOMALY":120.005,"EPHEMERIS_TYPE":0,"CLASSIFICATION_TYPE":"U","NORAD_CAT_ID":40019,"ELEMENT_SET_NO":999,"REV_AT_EPOCH":62724,"BSTAR":0.00016977,"MEAN_MOTION_DOT":1.032e-5,"MEAN_MOTION_DDOT":0},{"OBJECT_NAME":"TECHDEMOSAT-1 (TDS-1)","OBJECT_ID":"2014-037H","EPOCH":"2026-03-07T04:59:51.549792","MEAN_MOTION":15.11506592,"ECCENTRICITY":0.0004516,"INCLINATION":98.3779,"RA_OF_ASC_NODE":48.4851,"ARG_OF_PERICENTER":247.8164,"MEAN_ANOMALY":112.2584,"EPHEMERIS_TYPE":0,"CLASSIFICATION_TYPE":"U","NORAD_CAT_ID":40076,"ELEMENT_SET_NO":999,"REV_AT_EPOCH":63281,"BSTAR":0.00074759,"MEAN_MOTION_DOT":0.00012602,"MEAN_MOTION_DDOT":0},{"OBJECT_NAME":"TECHNOSAT","OBJECT_ID":"2017-042E","EPOCH":"2026-03-06T23:12:28.443168","MEAN_MOTION":15.04256877,"ECCENTRICITY":0.001976,"INCLINATION":97.4154,"RA_OF_ASC_NODE":227.6349,"ARG_OF_PERICENTER":84.2578,"MEAN_ANOMALY":276.09,"EPHEMERIS_TYPE":0,"CLASSIFICATION_TYPE":"U","NORAD_CAT_ID":42829,"ELEMENT_SET_NO":999,"REV_AT_EPOCH":47133,"BSTAR":0.00033716,"MEAN_MOTION_DOT":4.652e-5,"MEAN_MOTION_DDOT":0}]
