PROBA-1                 
1 26958U 01049B   26066.23424685  .00002234  00000+0  14845-3 0  9993
2 26958  97.9623  71.2264 0056842 107.1511 253.5950 15.07003752328261
CUTE-1 (CO-55)          
1 27844U 03031E   26065.96450898  .00000418  00000+0  20017-3 0  9995
2 27844  98.6780  75.7971 0010585 119.5034 240.7202 14.24263294177125
CUBESAT XI-IV (CO-57)   
1 27848U 03031J   26065.97229987  .00000340  00000+0  16835-3 0  9990
2 27848  98.6809  75.5995 0010270 135.9414 224.2584 14.23558791176835
APRIZESAT 4             
1 35684U 09041D   26066.15957798  .00001008  00000+0  12720-3 0  9994
2 35684  98.1490 139.4300 0042193 293.1269  66.5500 14.83702098896232
APRIZESAT 3             
1 35686U 09041F   26065.96872638  .00002356  00000+0  20823-3 0  9993
2 35686  98.1899 214.4076 0063133  45.6164 315.0201 14.95889217901095
PROBA-2                 
1 36037U 09059B   26066.03776632  .00000370  00000+0  96935-4 0  9991
2 36037  98.2428 250.8079 0012227 233.0350 126.9728 14.54788914866674
APRIZESAT 5             
1 37792U 11044E   26065.57988650  .00002105  00000+0  27406-3 0  9994
2 37792  98.2402 355.7657 0051926 334.6195  25.2467 14.80846140783603
APRIZESAT 6             
1 37793U 11044F   26065.52274729  .00001376  00000+0  20124-3 0  9994
2 37793  98.2420 333.9100 0044400  55.3828 120.7989 14.76744408781993
PROBA-V                 
1 39159U 13021A   26065.92432132  .00000096  00000+0  60105-4 0  9999
2 39159  98.3503  49.6266 0005343  76.1895 283.9879 14.23572723666562
APRIZESAT 7             
1 39416U 13066A   26066.10841168  .00001821  00000+0  18649-3 0  9990
2 39416  97.7595  20.8860 0035649 187.3450 172.7251 14.91271650666016
APRIZESAT 8             
1 39425U 13066K   26066.09825085  .00001686  00000+0  18931-3 0  9991
2 39425  97.8116  15.0742 0044587 261.7518  97.8641 14.87414176664491
BUGSAT-1 (TITA)         
1 40014U 14033E   26066.19376072  .00007275  00000+0  39549-3 0  9998
2 40014  98.0431 152.8757 0029152 166.9444 193.2547 15.14455261640391
SAUDISAT 4              
1 40016U 14033G   26065.99265532  .00001032  00000+0  14292-3 0  9998
2 40016  97.7406 215.7607 0045890  47.3099 313.1964 14.79383413630966
APRIZESAT 9             
1 40018U 14033J   26065.91735947  .00001321  00000+0  20140-3 0  9994
2 40018  97.8876 201.7229 0066652 168.0470 192.2340 14.74065586628490
APRIZESAT 10            
1 40019U 14033K   26066.08173104  .00001032  00000+0  16977-3 0  9997
2 40019  97.9474 195.4243 0077871 239.3464 120.0050 14.70745748627241
TECHDEMOSAT-1 (TDS-1)   
1 40076U 14037H   26066.20823553  .00012602  00000+0  74759-3 0  9995
2 40076  98.3779  48.4851 0004516 247.8164 112.2584 15.11506592632818
TECHNOSAT               
1 42829U 17042E   26065.96699587  .00004652  00000+0  33716-3 0  9996
2 42829  97.4154 227.6349 0019760  84.2578 276.0900 15.04256877471334
